LANDSAT 9               
1 49260U 21088A   24264.48437704  .00001271  00000+0  29202-3 0  9993
2 49260  98.2236 332.8982 0001251  86.4484 273.6858 14.57126380158562
